OBJECT_NAME,OBJECT_ID,EPOCH,MEAN_MOTION,ECCENTRICITY,INCLINATION,RA_OF_ASC_NODE,ARG_OF_PERICENTER,MEAN_ANOMALY,EPHEMERIS_TYPE,CLASSIFICATION_TYPE,NORAD_CAT_ID,ELEMENT_SET_NO,REV_AT_EPOCH,BSTAR,MEAN_MOTION_DOT,MEAN_MOTION_DDOT
ONEWEB-0311,2021-075Y,2026-06-14T12:20:05.769024,13.17650715,.0002279,87.9136,6.3947,82.6794,277.4596,0,U,49097,999,23327,.15512E-3,.73E-6,0
ONEWEB-0312,2021-075Z,2026-06-14T12:41:59.135424,13.17652478,.0002167,87.9132,6.4024,92.3263,267.8116,0,U,49098,999,23325,.11572E-3,.58E-6,0
ONEWEB-0313,2021-075AA,2026-06-14T12:49:02.756352,13.17647902,.0001989,87.9130,6.4072,86.8116,273.3243,0,U,49099,999,23324,.10688E-3,.54E-6,0
ONEWEB-0314,2021-075AB,2026-06-14T12:00:39.701664,13.17649058,.0002229,87.9143,6.3861,91.7886,268.3501,0,U,49100,999,23321,.12064E-3,.6E-6,0
ONEWEB-0315,2021-075AC,2026-06-14T11:08:06.297792,13.12443464,.0002125,87.8946,351.1858,82.6681,277.4689,0,U,49101,999,23481,-.10346E-2,-.359E-5,0
ONEWEB-0316,2021-075AD,2026-06-14T12:04:31.234656,13.18687170,.0001923,87.9162,335.9904,91.5513,268.5839,0,U,49102,999,23685,.24233E-3,.108E-5,0
ONEWEB-0317,2021-075AE,2026-06-14T11:12:59.141952,13.12443645,.0001483,87.8951,351.2095,114.1009,246.0275,0,U,49103,999,23483,-.10848E-2,-.378E-5,0
ONEWEB-0318,2021-075AF,2026-06-14T11:59:40.095168,13.18686053,.0002047,87.9168,335.9924,87.0144,273.1222,0,U,49104,999,23681,.88033E-4,.48E-6,0
ONEWEB-0319,2021-075AG,2026-06-14T12:22:31.124064,13.17648952,.0002248,87.9133,6.3997,77.4058,282.7324,0,U,49105,999,23325,.11167E-3,.56E-6,0
ONEWEB-0323,2021-075AH,2026-06-14T12:35:56.245056,13.12442606,.0002323,87.8948,351.1788,83.4000,276.7393,0,U,49106,999,23420,.15606E-4,.18E-6,0
ONEWEB-0329,2021-075AJ,2026-06-14T12:34:40.186272,13.17648589,.0002023,87.9134,6.3988,89.2761,270.8602,0,U,49107,999,23323,.6756E-4,.39E-6,0
ONEWEB-0330,2021-075AK,2026-06-14T11:19:33.451680,13.17649124,.0002031,87.9137,6.4292,93.5657,266.5706,0,U,49108,999,23326,.12584E-3,.62E-6,0
ONEWEB-0292,2021-083A,2026-06-14T11:59:04.309152,13.13471220,.0001934,87.8943,320.7737,91.6031,268.5320,0,U,49186,999,23057,.10969E-2,.413E-5,0
ONEWEB-0303,2021-083B,2026-06-14T11:54:48.629088,13.18687198,.0002002,87.9164,335.9918,89.5626,270.5735,0,U,49187,999,22962,.78493E-4,.44E-6,0
ONEWEB-0306,2021-083C,2026-06-14T11:40:14.167776,13.18686964,.0001718,87.9170,335.9814,98.8647,261.2680,0,U,49188,999,22966,.13371E-3,.66E-6,0
ONEWEB-0307,2021-083D,2026-06-14T10:00:50.013792,13.13470563,.0001974,87.8948,320.7869,94.8613,265.2742,0,U,49189,999,23056,.92072E-3,.349E-5,0
ONEWEB-0320,2021-083E,2026-06-14T12:09:21.881664,13.18685919,.0001821,87.9157,335.9960,93.4505,266.6836,0,U,49190,999,22962,.18585E-3,.86E-6,0
ONEWEB-0321,2021-083F,2026-06-14T13:11:22.024608,13.20772282,.0001795,87.9191,274.9604,107.2906,252.8424,0,U,49191,999,23648,.2135E-3,.1E-5,0
ONEWEB-0322,2021-083G,2026-06-14T09:54:42.220224,13.13469580,.0001363,87.8949,320.7883,98.8606,261.2677,0,U,49192,999,23055,.28309E-3,.116E-5,0
ONEWEB-0324,2021-083H,2026-06-14T11:30:30.904704,13.18685339,.0001952,87.9170,335.9881,97.3821,262.7532,0,U,49193,999,22964,.16392E-3,.78E-6,0
ONEWEB-0325,2021-083J,2026-06-14T11:35:22.750944,13.18685726,.0001802,87.9160,335.9961,89.9435,270.1904,0,U,49194,999,22965,.12945E-3,.64E-6,0
ONEWEB-0326,2021-083K,2026-06-14T11:57:25.942752,13.18685472,.0002036,87.9168,335.9908,85.7195,274.4170,0,U,49195,999,22964,.12699E-3,.63E-6,0
ONEWEB-0327,2021-083L,2026-06-14T11:57:01.680768,13.18685200,.0001993,87.9159,335.9954,81.2095,278.9263,0,U,49196,999,22966,.11136E-3,.57E-6,0
ONEWEB-0328,2021-083M,2026-06-14T11:29:48.022656,13.13471020,.0001937,87.8959,320.7480,99.2445,260.8903,0,U,49197,999,23054,.25258E-3,.105E-5,0
ONEWEB-0331,2021-083N,2026-06-14T11:47:30.924096,13.18687143,.0002138,87.9169,335.9857,86.6145,273.5231,0,U,49198,999,22965,.1407E-3,.68E-6,0
ONEWEB-0333,2021-083P,2026-06-14T11:22:29.028576,13.13470202,.000181,87.8948,320.7756,94.4572,265.6764,0,U,49199,999,23055,-.28005E-3,-.9E-6,0
ONEWEB-0334,2021-083Q,2026-06-14T08:08:35.449152,13.21115909,.0000952,87.9189,275.0121,165.4093,194.7068,0,U,49200,999,23641,.73601E-1,.30192E-3,0
ONEWEB-0335,2021-083R,2026-06-14T11:15:10.346400,13.13471381,.0001981,87.8950,320.7737,92.9590,267.1766,0,U,49201,999,23056,-.49801E-3,-.169E-5,0
ONEWEB-0336,2021-083S,2026-06-14T10:33:43.698240,13.13469897,.0002232,87.8950,320.7747,93.4608,266.6777,0,U,49202,999,23055,.16763E-4,.19E-6,0
ONEWEB-0337,2021-083T,2026-06-14T10:48:09.573984,13.13470361,.0002024,87.8948,320.7787,98.2941,261.8418,0,U,49203,999,23055,-.52608E-3,-.179E-5,0
ONEWEB-0338,2021-083U,2026-06-14T12:59:14.158176,13.20774138,.0001668,87.9182,274.9762,102.7741,257.3579,0,U,49204,999,23646,.67524E-4,.4E-6,0
