ONEWEB-0311             
1 49097U 21075Y   26165.51395566  .00000073  00000+0  15512-3 0  9990
2 49097  87.9136   6.3947 0002279  82.6794 277.4596 13.17650715233273
ONEWEB-0312             
1 49098U 21075Z   26165.52915666  .00000058  00000+0  11572-3 0  9996
2 49098  87.9132   6.4024 0002167  92.3263 267.8116 13.17652478233259
ONEWEB-0313             
1 49099U 21075AA  26165.53405968  .00000054  00000+0  10688-3 0  9990
2 49099  87.9130   6.4072 0001989  86.8116 273.3243 13.17647902233245
ONEWEB-0314             
1 49100U 21075AB  26165.50045951  .00000060  00000+0  12064-3 0  9999
2 49100  87.9143   6.3861 0002229  91.7886 268.3501 13.17649058233216
ONEWEB-0315             
1 49101U 21075AC  26165.46396178 -.00000359  00000+0 -10346-2 0  9998
2 49101  87.8946 351.1858 0002125  82.6681 277.4689 13.12443464234814
ONEWEB-0316             
1 49102U 21075AD  26165.50313929  .00000108  00000+0  24233-3 0  9998
2 49102  87.9162 335.9904 0001923  91.5513 268.5839 13.18687170236850
ONEWEB-0317             
1 49103U 21075AE  26165.46735118 -.00000378  00000+0 -10848-2 0  9999
2 49103  87.8951 351.2095 0001483 114.1009 246.0275 13.12443645234833
ONEWEB-0318             
1 49104U 21075AF  26165.49976962  .00000048  00000+0  88033-4 0  9992
2 49104  87.9168 335.9924 0002047  87.0144 273.1222 13.18686053236811
ONEWEB-0319             
1 49105U 21075AG  26165.51563801  .00000056  00000+0  11167-3 0  9992
2 49105  87.9133   6.3997 0002248  77.4058 282.7324 13.17648952233252
ONEWEB-0323             
1 49106U 21075AH  26165.52495654  .00000018  00000+0  15606-4 0  9995
2 49106  87.8948 351.1788 0002323  83.4000 276.7393 13.12442606234201
ONEWEB-0329             
1 49107U 21075AJ  26165.52407623  .00000039  00000+0  67560-4 0  9994
2 49107  87.9134   6.3988 0002023  89.2761 270.8602 13.17648589233239
ONEWEB-0330             
1 49108U 21075AK  26165.47191495  .00000062  00000+0  12584-3 0  9997
2 49108  87.9137   6.4292 0002031  93.5657 266.5706 13.17649124233269
ONEWEB-0292             
1 49186U 21083A   26165.49935543  .00000413  00000+0  10969-2 0  9998
2 49186  87.8943 320.7737 0001934  91.6031 268.5320 13.13471220230572
ONEWEB-0303             
1 49187U 21083B   26165.49639617  .00000044  00000+0  78493-4 0  9990
2 49187  87.9164 335.9918 0002002  89.5626 270.5735 13.18687198229626
ONEWEB-0306             
1 49188U 21083C   26165.48627509  .00000066  00000+0  13371-3 0  9994
2 49188  87.9170 335.9814 0001718  98.8647 261.2680 13.18686964229668
ONEWEB-0307             
1 49189U 21083D   26165.41724553  .00000349  00000+0  92072-3 0  9994
2 49189  87.8948 320.7869 0001974  94.8613 265.2742 13.13470563230561
ONEWEB-0320             
1 49190U 21083E   26165.50650326  .00000086  00000+0  18585-3 0  9997
2 49190  87.9157 335.9960 0001821  93.4505 266.6836 13.18685919229624
ONEWEB-0321             
1 49191U 21083F   26165.54956047  .00000100  00000+0  21350-3 0  9992
2 49191  87.9191 274.9604 0001795 107.2906 252.8424 13.20772282236484
ONEWEB-0322             
1 49192U 21083G   26165.41298866  .00000116  00000+0  28309-3 0  9995
2 49192  87.8949 320.7883 0001363  98.8606 261.2677 13.13469580230559
ONEWEB-0324             
1 49193U 21083H   26165.47952436  .00000078  00000+0  16392-3 0  9998
2 49193  87.9170 335.9881 0001952  97.3821 262.7532 13.18685339229641
ONEWEB-0325             
1 49194U 21083J   26165.48290221  .00000064  00000+0  12945-3 0  9992
2 49194  87.9160 335.9961 0001802  89.9435 270.1904 13.18685726229659
ONEWEB-0326             
1 49195U 21083K   26165.49821693  .00000063  00000+0  12699-3 0  9992
2 49195  87.9168 335.9908 0002036  85.7195 274.4170 13.18685472229645
ONEWEB-0327             
1 49196U 21083L   26165.49793612  .00000057  00000+0  11136-3 0  9990
2 49196  87.9159 335.9954 0001993  81.2095 278.9263 13.18685200229661
ONEWEB-0328             
1 49197U 21083M   26165.47902804  .00000105  00000+0  25258-3 0  9998
2 49197  87.8959 320.7480 0001937  99.2445 260.8903 13.13471020230549
ONEWEB-0331             
1 49198U 21083N   26165.49133014  .00000068  00000+0  14070-3 0  9998
2 49198  87.9169 335.9857 0002138  86.6145 273.5231 13.18687143229656
ONEWEB-0333             
1 49199U 21083P   26165.47394709 -.00000090  00000+0 -28005-3 0  9997
2 49199  87.8948 320.7756 0001810  94.4572 265.6764 13.13470202230553
ONEWEB-0334             
1 49200U 21083Q   26165.33929918  .00030192  00000+0  73601-1 0  9995
2 49200  87.9189 275.0121 0000952 165.4093 194.7068 13.21115909236414
ONEWEB-0335             
1 49201U 21083R   26165.46886975 -.00000169  00000+0 -49801-3 0  9995
2 49201  87.8950 320.7737 0001981  92.9590 267.1766 13.13471381230560
ONEWEB-0336             
1 49202U 21083S   26165.44008910  .00000019  00000+0  16763-4 0  9993
2 49202  87.8950 320.7747 0002232  93.4608 266.6777 13.13469897230552
ONEWEB-0337             
1 49203U 21083T   26165.45011081 -.00000179  00000+0 -52608-3 0  9994
2 49203  87.8948 320.7787 0002024  98.2941 261.8418 13.13470361230553
ONEWEB-0338             
1 49204U 21083U   26165.54113609  .00000040  00000+0  67524-4 0  9993
2 49204  87.9182 274.9762 0001668 102.7741 257.3579 13.20774138236461
